OBJECT_NAME,OBJECT_ID,EPOCH,MEAN_MOTION,ECCENTRICITY,INCLINATION,RA_OF_ASC_NODE,ARG_OF_PERICENTER,MEAN_ANOMALY,EPHEMERIS_TYPE,CLASSIFICATION_TYPE,NORAD_CAT_ID,ELEMENT_SET_NO,REV_AT_EPOCH,BSTAR,MEAN_MOTION_DOT,MEAN_MOTION_DDOT
H-2A R/B,2006-002B,2026-06-09T16:07:30.404352,15.17967688,.00496376,98.2555,315.8225,288.5583,71.0260,0,U,28932,999,10838,.2659624E-3,.5493E-4,0
RESURS-DK 1,2006-021A,2026-06-09T16:44:52.255392,15.13183825,.0006574,69.9339,358.9397,297.6038,62.4460,0,U,29228,999,10144,.12816245E-3,.2172E-4,0
CZ-4B R/B,2006-046C,2026-06-09T16:06:21.627360,15.17728785,.00312931,97.5457,205.3012,310.2153,49.6343,0,U,29507,999,7399,.19630644E-3,.3939E-4,0
CZ-2C R/B,2007-010B,2026-06-09T14:13:02.211744,14.20274495,.00594631,98.4092,269.3151,28.1101,332.3266,0,U,31114,999,99276,.52179142E-4,.73E-6,0
COSMO-SKYMED 1,2007-023A,2026-06-09T21:59:46.691232,14.97066258,.00010428,97.8854,352.7123,83.7321,276.4019,0,U,31598,999,2870,.17367281E-3,.1942E-4,0
COSMOS 2428,2007-029A,2026-06-09T17:02:33.855648,14.12929629,.00072142,70.9373,10.1775,149.3595,210.7949,0,U,31792,999,97709,-.6434389E-4,-.168E-5,0
SL-16 R/B,2007-029B,2026-06-09T17:56:45.955104,14.14850976,.00022208,70.9761,338.8676,258.7813,116.8600,0,U,31793,999,97839,.18706828E-3,.313E-5,0
KORONAS-FOTON,2009-003A,2026-06-09T18:18:32.816448,15.45569470,.00109067,82.4294,180.0032,172.3068,187.8350,0,U,33504,999,95995,.22320889E-3,.10789E-3,0
CZ-2C R/B,2011-030B,2026-06-09T15:11:41.567136,14.81452891,.00535639,97.8652,116.1559,52.1043,125.1569,0,U,37731,999,80370,.15805742E-3,.1214E-4,0
H-2A R/B,2012-025E,2026-06-09T15:56:32.640288,14.95674370,.00441797,98.4813,135.1895,13.6139,346.6260,0,U,38341,999,76196,.25370843E-3,.2807E-4,0
SHIJIAN-16 (SJ-16),2013-057A,2026-06-09T22:24:05.550912,14.92593137,.00169223,74.9735,10.4225,247.5707,112.3689,0,U,39358,999,68526,.64517233E-4,.636E-5,0
SL-4 R/B,2014-021B,2026-06-09T13:05:31.801344,15.41791897,.00916069,51.6055,248.2051,78.1861,282.9382,0,U,39679,999,67043,.20446846E-3,.9776E-4,0
ALOS-2,2014-029A,2026-06-08T13:11:42.167040,14.79472067,.00016718,97.9210,256.8376,90.6305,269.5098,0,U,39766,999,65030,.20114351E-3,.1451E-4,0
YAOGAN-29,2015-069A,2026-06-09T23:00:32.968224,14.83078209,.00028488,98.0035,189.5800,66.5402,293.6110,0,U,41038,999,56955,.37028509E-4,.247E-5,0
ASTRO-H (HITOMI),2016-012A,2026-06-09T13:36:37.999872,15.10477681,.00096213,30.9981,123.3988,177.6645,182.4039,0,U,41337,999,56613,.12034076E-3,.2128E-4,0
HXMT (HUIYAN),2017-034A,2026-06-09T21:33:59.139360,15.18428208,.00301864,43.0133,223.6251,99.0953,261.3313,0,U,42758,999,49655,.20865955E-3,.418E-4,0
SAOCOM 1A,2018-076A,2026-06-09T21:53:49.511904,14.82169235,.00015056,97.8890,347.7671,78.0628,282.0754,0,U,43641,999,41502,.26783084E-4,.161E-5,0
H-2A R/B,2018-084L,2026-06-09T14:46:20.647200,15.44862207,.00241727,98.8594,37.8526,65.5470,294.8291,0,U,43682,999,41995,.40421827E-3,.19083E-3,0
SAOCOM 1B,2020-059A,2026-06-09T22:38:51.930240,14.82166215,.00015012,97.8893,346.8924,81.5775,278.5608,0,U,46265,999,31241,.96837198E-4,.719E-5,0
CSS (TIANHE),2021-035A,2026-06-09T20:58:23.790144,15.60503231,.0008506,41.4695,6.4998,18.7671,341.3480,0,U,48274,999,29202,.25759568E-3,.21595E-3,0
COSMOS 2550,2021-056A,2026-06-08T19:23:25.914048,15.33755463,.0008705,67.1416,125.2525,266.0377,93.9783,0,U,48865,999,27743,.19790476E-3,.631E-4,0
CZ-2C R/B,2022-058K,2026-06-09T10:27:08.924544,15.61324142,.00329769,50.1846,203.8374,235.4973,124.2885,0,U,52794,999,22443,.32951423E-3,.28951E-3,0
CZ-2C R/B,2022-132E,2026-06-09T18:20:18.782592,15.70657208,.0016835,97.2907,167.4614,107.2387,253.0719,0,U,54039,999,20478,.49675889E-3,.61965E-3,0
GSLV R/B,2022-138AN,2026-06-09T10:21:43.432416,14.97222779,.00217094,87.3797,135.5889,170.5161,189.6485,0,U,54149,999,19765,.15888803E-3,.1875E-4,0
XRISM,2023-137A,2026-06-09T09:40:27.430464,15.12397601,.00079402,31.0028,50.0204,246.6719,113.3085,0,U,57800,999,15168,.24465787E-3,.4454E-4,0
ACS3,2024-077B,2026-06-09T17:45:38.039040,13.93928537,.00551523,97.1675,81.1911,68.4598,292.2435,0,U,59588,999,10700,.14411534E-1,.19288E-3,0
CZ-8A R/B,2025-231K,2026-06-09T10:27:32.276736,14.30152760,.01164615,50.0044,72.2936,196.7286,162.9773,0,U,66004,999,3383,.50033836E-4,-.24E-6,0
SZ-21 MODULE,2025-246C,2026-06-08T20:26:08.101824,15.75674541,.00067,41.4714,359.2138,299.9993,60.0186,0,U,66515,999,3242,.25860117E-3,.40731E-3,0
