H-2A R/B                
1 28932U 06002B   26160.67187968  .00005493  00000+0  26596-3 0  9990
2 28932  98.2555 315.8225 0049637 288.5583  71.0260 15.17967688108388
RESURS-DK 1             
1 29228U 06021A   26160.69782703  .00002172  00000+0  12816-3 0  9991
2 29228  69.9339 358.9397 0006574 297.6038  62.4460 15.13183825101444
CZ-4B R/B               
1 29507U 06046C   26160.67108365  .00003939  00000+0  19631-3 0  9996
2 29507  97.5457 205.3012 0031293 310.2153  49.6343 15.17728785 73996
CZ-2C R/B               
1 31114U 07010B   26160.59238671  .00000073  00000+0  52179-4 0  9991
2 31114  98.4092 269.3151 0059463  28.1101 332.3266 14.20274495992767
COSMO-SKYMED 1          
1 31598U 07023A   26160.91651263  .00001942  00000+0  17367-3 0  9998
2 31598  97.8854 352.7123 0001042  83.7321 276.4019 14.97066258 28707
COSMOS 2428             
1 31792U 07029A   26160.71011407 -.00000168  00000+0 -64344-4 0  9997
2 31792  70.9373  10.1775 0007214 149.3595 210.7949 14.12929629977093
SL-16 R/B               
1 31793U 07029B   26160.74775411  .00000313  00000+0  18707-3 0  9994
2 31793  70.9761 338.8676 0002220 258.7813 116.8600 14.14850976978399
KORONAS-FOTON           
1 33504U 09003A   26160.76287982  .00010789  00000+0  22321-3 0  9998
2 33504  82.4294 180.0032 0010906 172.3068 187.8350 15.45569470959958
CZ-2C R/B               
1 37731U 11030B   26160.63311999  .00001214  00000+0  15806-3 0  9992
2 37731  97.8652 116.1559 0053563  52.1043 125.1569 14.81452891803705
H-2A R/B                
1 38341U 12025E   26160.66426667  .00002807  00000+0  25371-3 0  9994
2 38341  98.4813 135.1895 0044179  13.6139 346.6260 14.95674370761966
SHIJIAN-16 (SJ-16)      
1 39358U 13057A   26160.93339758  .00000636  00000+0  64517-4 0  9997
2 39358  74.9735  10.4225 0016922 247.5707 112.3689 14.92593137685262
SL-4 R/B                
1 39679U 14021B   26160.54550696  .00009776  00000+0  20447-3 0  9995
2 39679  51.6055 248.2051 0091606  78.1861 282.9382 15.41791897670439
ALOS-2                  
1 39766U 14029A   26159.54979360  .00001451  00000+0  20114-3 0  9994
2 39766  97.9210 256.8376 0001671  90.6305 269.5098 14.79472067650306
YAOGAN-29               
1 41038U 15069A   26160.95871491  .00000247  00000+0  37029-4 0  9993
2 41038  98.0035 189.5800 0002848  66.5402 293.6110 14.83078209569553
ASTRO-H (HITOMI)        
1 41337U 16012A   26160.56710648  .00002128  00000+0  12034-3 0  9995
2 41337  30.9981 123.3988 0009621 177.6645 182.4039 15.10477681566136
HXMT (HUIYAN)           
1 42758U 17034A   26160.89860115  .00004180  00000+0  20866-3 0  9991
2 42758  43.0133 223.6251 0030186  99.0953 261.3313 15.18428208496553
SAOCOM 1A               
1 43641U 18076A   26160.91237861  .00000161  00000+0  26783-4 0  9999
2 43641  97.8890 347.7671 0001505  78.0628 282.0754 14.82169235415029
H-2A R/B                
1 43682U 18084L   26160.61551675  .00019083  00000+0  40422-3 0  9990
2 43682  98.8594  37.8526 0024172  65.5470 294.8291 15.44862207419954
SAOCOM 1B               
1 46265U 20059A   26160.94365660  .00000719  00000+0  96837-4 0  9996
2 46265  97.8893 346.8924 0001501  81.5775 278.5608 14.82166215312418
CSS (TIANHE)            
1 48274U 21035A   26160.87388646  .00021595  00000+0  25760-3 0  9995
2 48274  41.4695   6.4998 0008506  18.7671 341.3480 15.60503231292025
COSMOS 2550             
1 48865U 21056A   26159.80793882  .00006310  00000+0  19790-3 0  9991
2 48865  67.1416 125.2525 0008705 266.0377  93.9783 15.33755463277435
CZ-2C R/B               
1 52794U 22058K   26160.43551996  .00028951  00000+0  32951-3 0  9998
2 52794  50.1846 203.8374 0032976 235.4973 124.2885 15.61324142224434
CZ-2C R/B               
1 54039U 22132E   26160.76410628  .00061965  00000+0  49676-3 0  9991
2 54039  97.2907 167.4614 0016835 107.2387 253.0719 15.70657208204786
GSLV R/B                
1 54149U 22138AN  26160.43175269  .00001875  00000+0  15889-3 0  9995
2 54149  87.3797 135.5889 0021709 170.5161 189.6485 14.97222779197654
XRISM                   
1 57800U 23137A   26160.40309526  .00004454  00000+0  24466-3 0  9991
2 57800  31.0028  50.0204 0007940 246.6719 113.3085 15.12397601151689
ACS3                    
1 59588U 24077B   26160.74002360  .00019288  00000+0  14412-1 0  9992
2 59588  97.1675  81.1911 0055152  68.4598 292.2435 13.93928537107006
CZ-8A R/B               
1 66004U 25231K   26160.43579024 -.00000024  00000+0  50034-4 0  9990
2 66004  50.0044  72.2936 0116461 196.7286 162.9773 14.30152760 33839
SZ-21 MODULE            
1 66515U 25246C   26159.85148266  .00040731  00000+0  25860-3 0  9993
2 66515  41.4714 359.2138 0006700 299.9993  60.0186 15.75674541 32427
